KUIPER-00126            
1 65955U 25228J   25300.88938073  .00028894  00000+0  86728-3 0  9999
2 65955  51.8800 241.4941 0006057 203.9947 156.0757 15.34201603  3370
KUIPER-00127            
1 65956U 25228K   25300.88365646  .00034156  00000+0  10036-2 0  9996
2 65956  51.8801 241.4586 0006005 181.3513 178.7458 15.34790074  3372
KUIPER-00128            
1 65957U 25228L   25300.88565830  .00018752  00000+0  56114-3 0  9996
2 65957  51.8802 241.4741 0005769 185.1327 174.9601 15.34563323  3371
KUIPER-00129            
1 65958U 25228M   25300.88527020  .00028854  00000+0  85573-3 0  9991
2 65958  51.8803 241.4709 0005908 180.0965 180.0020 15.34583010  3372
KUIPER-00130            
1 65959U 25228N   25300.88751669  .00016237  00000+0  49029-3 0  9998
2 65959  51.8795 241.4797 0005258 195.6860 164.3963 15.34387427  3379
KUIPER-00134            
1 65960U 25228P   25300.88842624  .00028869  00000+0  86421-3 0  9993
2 65960  51.8793 241.4849 0005221 200.7843 159.2931 15.34290648  3372
KUIPER-00135            
1 65961U 25228Q   25300.88802491  .00028883  00000+0  86498-3 0  9992
2 65961  51.8808 241.4902 0005108 188.1627 171.9276 15.34278185  3378
KUIPER-00136            
1 65962U 25228R   25300.88429109  .00028939  00000+0  85451-3 0  9994
2 65962  51.8800 241.4646 0005826 184.3360 175.7576 15.34719812  3377
KUIPER-00137            
1 65963U 25228S   25300.88760439  .00025962  00000+0  77674-3 0  9990
2 65963  51.8806 241.4866 0005327 195.3208 164.7617 15.34366739  3377
KUIPER-00138            
1 65964U 25228T   25300.88914555  .00030257  00000+0  90841-3 0  9995
2 65964  51.8796 241.4913 0005899 207.3826 152.6849 15.34170550  3370
KUIPER-00140            
1 65965U 25228U   25300.88985483  .00028940  00000+0  87050-3 0  9998
2 65965  51.8804 241.4989 0005587 208.5988 151.4692 15.34136103  3379
KUIPER-00141            
1 65966U 25228V   25300.88599275  .00017691  00000+0  53075-3 0  9990
2 65966  51.8796 241.4698 0005731 186.3297 173.7618 15.34525168  3372
