CCSDS_OMM_VERS = 2.0
CREATION_DATE  = 
ORIGINATOR     = 

OBJECT_NAME    = KUIPER-00126
OBJECT_ID      = 2025-228J
CENTER_NAME    = EARTH
REF_FRAME      = TEME
TIME_SYSTEM    = UTC
MEAN_ELEMENT_THEORY = SGP/SGP4

EPOCH          = 2025-10-27T21:20:42.495072
MEAN_MOTION    = 15.34201603
ECCENTRICITY   = .0006057
INCLINATION    = 51.8800
RA_OF_ASC_NODE = 241.4941
ARG_OF_PERICENTER = 203.9947
MEAN_ANOMALY   = 156.0757

EPHEMERIS_TYPE = 0
CLASSIFICATION_TYPE = U
NORAD_CAT_ID   = 65955
ELEMENT_SET_NO = 999
REV_AT_EPOCH   = 337
BSTAR          = .86727716E-3
MEAN_MOTION_DOT = .28894E-3
MEAN_MOTION_DDOT = 0

CCSDS_OMM_VERS = 2.0
CREATION_DATE  = 
ORIGINATOR     = 

OBJECT_NAME    = KUIPER-00127
OBJECT_ID      = 2025-228K
CENTER_NAME    = EARTH
REF_FRAME      = TEME
TIME_SYSTEM    = UTC
MEAN_ELEMENT_THEORY = SGP/SGP4

EPOCH          = 2025-10-27T21:12:27.918144
MEAN_MOTION    = 15.34790074
ECCENTRICITY   = .00060053
INCLINATION    = 51.8801
RA_OF_ASC_NODE = 241.4586
ARG_OF_PERICENTER = 181.3513
MEAN_ANOMALY   = 178.7458

EPHEMERIS_TYPE = 0
CLASSIFICATION_TYPE = U
NORAD_CAT_ID   = 65956
ELEMENT_SET_NO = 999
REV_AT_EPOCH   = 337
BSTAR          = .10035971E-2
MEAN_MOTION_DOT = .34156E-3
MEAN_MOTION_DDOT = 0

CCSDS_OMM_VERS = 2.0
CREATION_DATE  = 
ORIGINATOR     = 

OBJECT_NAME    = KUIPER-00128
OBJECT_ID      = 2025-228L
CENTER_NAME    = EARTH
REF_FRAME      = TEME
TIME_SYSTEM    = UTC
MEAN_ELEMENT_THEORY = SGP/SGP4

EPOCH          = 2025-10-27T21:15:20.877120
MEAN_MOTION    = 15.34563323
ECCENTRICITY   = .00057698
INCLINATION    = 51.8802
RA_OF_ASC_NODE = 241.4741
ARG_OF_PERICENTER = 185.1327
MEAN_ANOMALY   = 174.9601

EPHEMERIS_TYPE = 0
CLASSIFICATION_TYPE = U
NORAD_CAT_ID   = 65957
ELEMENT_SET_NO = 999
REV_AT_EPOCH   = 337
BSTAR          = .56114244E-3
MEAN_MOTION_DOT = .18752E-3
MEAN_MOTION_DDOT = 0

CCSDS_OMM_VERS = 2.0
CREATION_DATE  = 
ORIGINATOR     = 

OBJECT_NAME    = KUIPER-00129
OBJECT_ID      = 2025-228M
CENTER_NAME    = EARTH
REF_FRAME      = TEME
TIME_SYSTEM    = UTC
MEAN_ELEMENT_THEORY = SGP/SGP4

EPOCH          = 2025-10-27T21:14:47.345280
MEAN_MOTION    = 15.34583010
ECCENTRICITY   = .00059085
INCLINATION    = 51.8803
RA_OF_ASC_NODE = 241.4709
ARG_OF_PERICENTER = 180.0965
MEAN_ANOMALY   = 180.0020

EPHEMERIS_TYPE = 0
CLASSIFICATION_TYPE = U
NORAD_CAT_ID   = 65958
ELEMENT_SET_NO = 999
REV_AT_EPOCH   = 337
BSTAR          = .85572977E-3
MEAN_MOTION_DOT = .28854E-3
MEAN_MOTION_DDOT = 0

CCSDS_OMM_VERS = 2.0
CREATION_DATE  = 
ORIGINATOR     = 

OBJECT_NAME    = KUIPER-00130
OBJECT_ID      = 2025-228N
CENTER_NAME    = EARTH
REF_FRAME      = TEME
TIME_SYSTEM    = UTC
MEAN_ELEMENT_THEORY = SGP/SGP4

EPOCH          = 2025-10-27T21:18:01.442016
MEAN_MOTION    = 15.34387427
ECCENTRICITY   = .00052584
INCLINATION    = 51.8795
RA_OF_ASC_NODE = 241.4797
ARG_OF_PERICENTER = 195.6860
MEAN_ANOMALY   = 164.3963

EPHEMERIS_TYPE = 0
CLASSIFICATION_TYPE = U
NORAD_CAT_ID   = 65959
ELEMENT_SET_NO = 999
REV_AT_EPOCH   = 337
BSTAR          = .49028777E-3
MEAN_MOTION_DOT = .16237E-3
MEAN_MOTION_DDOT = 0

CCSDS_OMM_VERS = 2.0
CREATION_DATE  = 
ORIGINATOR     = 

OBJECT_NAME    = KUIPER-00134
OBJECT_ID      = 2025-228P
CENTER_NAME    = EARTH
REF_FRAME      = TEME
TIME_SYSTEM    = UTC
MEAN_ELEMENT_THEORY = SGP/SGP4

EPOCH          = 2025-10-27T21:19:20.027136
MEAN_MOTION    = 15.34290648
ECCENTRICITY   = .00052218
INCLINATION    = 51.8793
RA_OF_ASC_NODE = 241.4849
ARG_OF_PERICENTER = 200.7843
MEAN_ANOMALY   = 159.2931

EPHEMERIS_TYPE = 0
CLASSIFICATION_TYPE = U
NORAD_CAT_ID   = 65960
ELEMENT_SET_NO = 999
REV_AT_EPOCH   = 337
BSTAR          = .86421138E-3
MEAN_MOTION_DOT = .28869E-3
MEAN_MOTION_DDOT = 0

CCSDS_OMM_VERS = 2.0
CREATION_DATE  = 
ORIGINATOR     = 

OBJECT_NAME    = KUIPER-00135
OBJECT_ID      = 2025-228Q
CENTER_NAME    = EARTH
REF_FRAME      = TEME
TIME_SYSTEM    = UTC
MEAN_ELEMENT_THEORY = SGP/SGP4

EPOCH          = 2025-10-27T21:18:45.352224
MEAN_MOTION    = 15.34278185
ECCENTRICITY   = .00051083
INCLINATION    = 51.8808
RA_OF_ASC_NODE = 241.4902
ARG_OF_PERICENTER = 188.1627
MEAN_ANOMALY   = 171.9276

EPHEMERIS_TYPE = 0
CLASSIFICATION_TYPE = U
NORAD_CAT_ID   = 65961
ELEMENT_SET_NO = 999
REV_AT_EPOCH   = 337
BSTAR          = .86498433E-3
MEAN_MOTION_DOT = .28883E-3
MEAN_MOTION_DDOT = 0

CCSDS_OMM_VERS = 2.0
CREATION_DATE  = 
ORIGINATOR     = 

OBJECT_NAME    = KUIPER-00136
OBJECT_ID      = 2025-228R
CENTER_NAME    = EARTH
REF_FRAME      = TEME
TIME_SYSTEM    = UTC
MEAN_ELEMENT_THEORY = SGP/SGP4

EPOCH          = 2025-10-27T21:13:22.750176
MEAN_MOTION    = 15.34719812
ECCENTRICITY   = .00058263
INCLINATION    = 51.8800
RA_OF_ASC_NODE = 241.4646
ARG_OF_PERICENTER = 184.3360
MEAN_ANOMALY   = 175.7576

EPHEMERIS_TYPE = 0
CLASSIFICATION_TYPE = U
NORAD_CAT_ID   = 65962
ELEMENT_SET_NO = 999
REV_AT_EPOCH   = 337
BSTAR          = .854505E-3
MEAN_MOTION_DOT = .28939E-3
MEAN_MOTION_DDOT = 0

CCSDS_OMM_VERS = 2.0
CREATION_DATE  = 
ORIGINATOR     = 

OBJECT_NAME    = KUIPER-00137
OBJECT_ID      = 2025-228S
CENTER_NAME    = EARTH
REF_FRAME      = TEME
TIME_SYSTEM    = UTC
MEAN_ELEMENT_THEORY = SGP/SGP4

EPOCH          = 2025-10-27T21:18:09.019296
MEAN_MOTION    = 15.34366739
ECCENTRICITY   = .00053278
INCLINATION    = 51.8806
RA_OF_ASC_NODE = 241.4866
ARG_OF_PERICENTER = 195.3208
MEAN_ANOMALY   = 164.7617

EPHEMERIS_TYPE = 0
CLASSIFICATION_TYPE = U
NORAD_CAT_ID   = 65963
ELEMENT_SET_NO = 999
REV_AT_EPOCH   = 337
BSTAR          = .77674169E-3
MEAN_MOTION_DOT = .25962E-3
MEAN_MOTION_DDOT = 0

CCSDS_OMM_VERS = 2.0
CREATION_DATE  = 
ORIGINATOR     = 

OBJECT_NAME    = KUIPER-00138
OBJECT_ID      = 2025-228T
CENTER_NAME    = EARTH
REF_FRAME      = TEME
TIME_SYSTEM    = UTC
MEAN_ELEMENT_THEORY = SGP/SGP4

EPOCH          = 2025-10-27T21:20:22.175520
MEAN_MOTION    = 15.34170550
ECCENTRICITY   = .00058997
INCLINATION    = 51.8796
RA_OF_ASC_NODE = 241.4913
ARG_OF_PERICENTER = 207.3826
MEAN_ANOMALY   = 152.6849

EPHEMERIS_TYPE = 0
CLASSIFICATION_TYPE = U
NORAD_CAT_ID   = 65964
ELEMENT_SET_NO = 999
REV_AT_EPOCH   = 337
BSTAR          = .90840977E-3
MEAN_MOTION_DOT = .30257E-3
MEAN_MOTION_DDOT = 0

CCSDS_OMM_VERS = 2.0
CREATION_DATE  = 
ORIGINATOR     = 

OBJECT_NAME    = KUIPER-00140
OBJECT_ID      = 2025-228U
CENTER_NAME    = EARTH
REF_FRAME      = TEME
TIME_SYSTEM    = UTC
MEAN_ELEMENT_THEORY = SGP/SGP4

EPOCH          = 2025-10-27T21:21:23.457312
MEAN_MOTION    = 15.34136103
ECCENTRICITY   = .00055879
INCLINATION    = 51.8804
RA_OF_ASC_NODE = 241.4989
ARG_OF_PERICENTER = 208.5988
MEAN_ANOMALY   = 151.4692

EPHEMERIS_TYPE = 0
CLASSIFICATION_TYPE = U
NORAD_CAT_ID   = 65965
ELEMENT_SET_NO = 999
REV_AT_EPOCH   = 337
BSTAR          = .8704968E-3
MEAN_MOTION_DOT = .2894E-3
MEAN_MOTION_DDOT = 0

CCSDS_OMM_VERS = 2.0
CREATION_DATE  = 
ORIGINATOR     = 

OBJECT_NAME    = KUIPER-00141
OBJECT_ID      = 2025-228V
CENTER_NAME    = EARTH
REF_FRAME      = TEME
TIME_SYSTEM    = UTC
MEAN_ELEMENT_THEORY = SGP/SGP4

EPOCH          = 2025-10-27T21:15:49.773600
MEAN_MOTION    = 15.34525168
ECCENTRICITY   = .00057314
INCLINATION    = 51.8796
RA_OF_ASC_NODE = 241.4698
ARG_OF_PERICENTER = 186.3297
MEAN_ANOMALY   = 173.7618

EPHEMERIS_TYPE = 0
CLASSIFICATION_TYPE = U
NORAD_CAT_ID   = 65966
ELEMENT_SET_NO = 999
REV_AT_EPOCH   = 337
BSTAR          = .53074846E-3
MEAN_MOTION_DOT = .17691E-3
MEAN_MOTION_DDOT = 0

